STARLINK-5905           
1 55986U 23042A   23090.57463870 -.00072146  00000+0 -39344-3 0  9995
2 55986  43.0022 152.5216 0006478 295.4534  64.5666 15.79009436  1441
STARLINK-5915           
1 55987U 23042B   23089.91667824 -.00713571  00000+0 -40557-2 0  9998
2 55987  43.0002 156.5360 0006207 304.2166 272.2779 15.79842264  1306
STARLINK-5916           
1 55988U 23042C   23090.57453162 -.00292133  00000+0 -16475-2 0  9999
2 55988  43.0026 152.5199 0006870 278.9003  81.1090 15.78936866  1441
STARLINK-5947           
1 55989U 23042D   23090.63769779 -.00158496  00000+0 -87972-3 0  9995
2 55989  43.0026 152.1357 0006624 295.0423  64.9760 15.78923069  1452
STARLINK-5946           
1 55990U 23042E   23089.91667824 -.00713442  00000+0 -40739-2 0  9991
2 55990  43.0002 156.5398 0006200 302.3515 272.6723 15.79741070  1307
STARLINK-5948           
1 55991U 23042F   23089.91667824 -.00713626  00000+0 -40499-2 0  9999
2 55991  43.0002 156.5348 0006210 304.9060 272.0930 15.79875048  1304
STARLINK-5962           
1 55992U 23042G   23090.57433736 -.00190787  00000+0 -10589-2 0  9991
2 55992  43.0028 152.5199 0006626 295.6707  64.3479 15.79017032  1444
STARLINK-5969           
1 55993U 23042H   23089.91667824 -.00713459  00000+0 -40678-2 0  9994
2 55993  43.0002 156.5385 0006191 301.3481 274.1800 15.79774245  1309
STARLINK-5956           
1 55994U 23042J   23089.91667824 -.00713595  00000+0 -40528-2 0  9990
2 55994  43.0002 156.5356 0006205 304.7495 271.9990 15.79858589  1305
STARLINK-5957           
1 55995U 23042K   23089.91667824 -.00713506  00000+0 -40618-2 0  9993
2 55995  43.0002 156.5373 0006191 302.4894 273.5326 15.79807804  1302
STARLINK-5903           
1 55996U 23042L   23090.63729508 -.00192937  00000+0 -10711-2 0  9993
2 55996  43.0025 152.1303 0006082 302.8586  57.1699 15.79023997  1452
STARLINK-5904           
1 55997U 23042M   23090.63740552 -.00091408  00000+0 -50179-3 0  9990
2 55997  43.0026 152.1324 0006128 300.8928  59.1340 15.78949829  1451
STARLINK-5902           
1 55998U 23042N   23090.63719366 -.00216736  00000+0 -12045-2 0  9992
2 55998  43.0027 152.1301 0006130 294.5622  65.4610 15.79066165  1455
STARLINK-5901           
1 55999U 23042P   23090.63734152 -.00352294  00000+0 -20005-2 0  9998
2 55999  43.0028 152.1320 0006430 290.8313  69.1869 15.78948110  1452
STARLINK-5910           
1 56000U 23042Q   23090.63700236 -.00239203  00000+0 -13302-2 0  9994
2 56000  43.0034 152.1309 0006452 307.3343  52.6939 15.79109501  1450
STARLINK-5944           
1 56001U 23042R   23090.63714750 -.00271877  00000+0 -15225-2 0  9990
2 56001  43.0027 152.1298 0005977 290.8064  69.2166 15.79049113  1455
STARLINK-5799           
1 56002U 23042S   23090.57379146 -.00259746  00000+0 -14437-2 0  9995
2 56002  43.0028 152.5132 0006122 295.6369  64.3869 15.79179612  1445
STARLINK-5789           
1 56003U 23042T   23090.63725284 -.00086423  00000+0 -47236-3 0  9995
2 56003  43.0025 152.1311 0006520 293.6594  66.3593 15.79021491  1456
STARLINK-5787           
1 56004U 23042U   23090.63695714 -.00357322  00000+0 -20197-2 0  9995
2 56004  43.0033 152.1312 0006580 307.0897  52.9372 15.79060367  1450
STARLINK-5801           
1 56005U 23042V   23090.63709520 -.00232079  00000+0 -12908-2 0  9999
2 56005  43.0028 152.1296 0006335 293.6634  66.3571 15.79088036  1456
STARLINK-5794           
1 56006U 23042W   23090.63679307 -.00030030  00000+0 -15915-3 0  9994
2 56006  43.0028 152.1279 0006857 306.0028  54.0207 15.79302414  1452
STARLINK-5806           
1 56007U 23042X   23090.63690253 -.00310287  00000+0 -17402-2 0  9995
2 56007  43.0027 152.1282 0006550 301.4142  58.6088 15.79110094  1450
STARLINK-5803           
1 56008U 23042Y   23090.63674908 -.00278533  00000+0 -15519-2 0  9999
2 56008  43.0026 152.1260 0006166 297.6513  62.3732 15.79175389  1453
STARLINK-5964           
1 56009U 23042Z   23090.63684997 -.00200122  00000+0 -11033-2 0  9995
2 56009  43.0033 152.1277 0006195 298.7564  61.2684 15.79195113  1451
STARLINK-5968           
1 56010U 23042AA  23090.63670309 -.00380288  00000+0 -21472-2 0  9999
2 56010  43.0033 152.1268 0006604 299.1293  60.8916 15.79142542  1453
STARLINK-5936           
1 56011U 23042AB  23089.91667824 -.00713537  00000+0 -39901-2 0  9990
2 56011  43.0005 156.5235 0006418 313.3527 268.2074 15.80190585  1302
STARLINK-5940           
1 56012U 23042AC  23089.91667824 -.00713491  00000+0 -39961-2 0  9996
2 56012  43.0005 156.5248 0006381 312.3443 268.7494 15.80157223  1305
STARLINK-5941           
1 56013U 23042AD  23089.91667824 -.00713470  00000+0 -39988-2 0  9993
2 56013  43.0005 156.5254 0006352 311.9034 268.9156 15.80142415  1306
STARLINK-5942           
1 56014U 23042AE  23090.00001157 -.00683438  00000+0 -38303-2 0  9997
2 56014  43.0002 156.0137 0006353 307.8757  28.5347 15.80068668  1350
STARLINK-5939           
1 56015U 23042AF  23089.91667824 -.00713492  00000+0 -39931-2 0  9997
2 56015  43.0005 156.5241 0006374 311.6663 269.6677 15.80173585  1301
STARLINK-5943           
1 56016U 23042AG  23089.91667824 -.00714075  00000+0 -39725-2 0  9997
2 56016  43.0003 156.5199 0006329 315.0077 268.2234 15.80305019  1302
STARLINK-5934           
1 56017U 23042AH  23090.63635273 -.00255645  00000+0 -14103-2 0  9998
2 56017  43.0033 152.1253 0006265 306.6806  53.3489 15.79330994  1453
STARLINK-5945           
1 56018U 23042AJ  23089.91667824 -.00714129  00000+0 -39755-2 0  9992
2 56018  43.0003 156.5206 0006416 314.5196 268.4669 15.80289113  1306
STARLINK-5949           
1 56019U 23042AK  23089.91667824 -.00713509  00000+0 -39841-2 0  9990
2 56019  43.0005 156.5224 0006349 313.6527 268.3852 15.80223270  1307
STARLINK-5912           
1 56020U 23042AL  23090.63625627 -.00339351  00000+0 -18927-2 0  9999
2 56020  43.0035 152.1216 0005801 299.4700  60.5592 15.79315861  1456
STARLINK-5907           
1 56021U 23042AM  23089.91667824 -.00713523  00000+0 -39783-2 0  9994
2 56021  43.0004 156.5213 0006320 313.8714 268.6491 15.80255624  1306
STARLINK-5783           
1 56022U 23042AN  23089.91667824 -.00714145  00000+0 -39610-2 0  9995
2 56022  43.0003 156.5176 0006367 315.5518 268.6407 15.80369221  1302
STARLINK-5771           
1 56023U 23042AP  23089.91667824 -.00714155  00000+0 -39699-2 0  9994
2 56023  43.0003 156.5192 0006431 314.9353 268.5584 15.80320127  1300
STARLINK-5772           
1 56024U 23042AQ  23089.91667824 -.00713820  00000+0 -39499-2 0  9991
2 56024  43.0003 156.5154 0006434 316.8303 268.0538 15.80417993  1300
STARLINK-5766           
1 56025U 23042AR  23089.91667824 -.00714129  00000+0 -39669-2 0  9994
2 56025  43.0003 156.5186 0006371 315.2326 268.4934 15.80336542  1308
STARLINK-5770           
1 56026U 23042AS  23089.91667824 -.00714203  00000+0 -39579-2 0  9998
2 56026  43.0003 156.5172 0006468 316.5973 267.8099 15.80386373  1305
STARLINK-5777           
1 56027U 23042AT  23089.91667824 -.00714179  00000+0 -39640-2 0  9990
2 56027  43.0003 156.5181 0006456 315.2392 268.7272 15.80352594  1305
STARLINK-5779           
1 56028U 23042AU  23089.91667824 -.00713848  00000+0 -39440-2 0  9991
2 56028  43.0003 156.5143 0006475 317.8998 267.4493 15.80450454  1300
STARLINK-5774           
1 56029U 23042AV  23089.91667824 -.00713855  00000+0 -39528-2 0  9997
2 56029  43.0003 156.5159 0006523 317.1553 267.4927 15.80401901  1307
STARLINK-5781           
1 56030U 23042AW  23089.91667824 -.00713872  00000+0 -39409-2 0  9996
2 56030  43.0003 156.5139 0006507 318.6040 266.9549 15.80467650  1303
STARLINK-5785           
1 56031U 23042AX  23090.63577211 -.00290647  00000+0 -15981-2 0  9997
2 56031  43.0034 152.1206 0006235 311.6179  48.4157 15.79495834  1456
STARLINK-5786           
1 56032U 23042AY  23089.91667824 -.00713899  00000+0 -39320-2 0  9999
2 56032  43.0003 156.5122 0006529 319.1773 267.0601 15.80516862  1301
STARLINK-5784           
1 56033U 23042AZ  23089.91667824 -.00713880  00000+0 -39350-2 0  9993
2 56033  43.0003 156.5126 0006508 319.1985 266.8201 15.80500161  1306
STARLINK-5782           
1 56034U 23042BA  23089.91667824 -.00713940  00000+0 -39295-2 0  9999
2 56034  43.0003 156.5116 0006592 320.7527 265.7639 15.80530869  1300
STARLINK-5792           
1 56035U 23042BB  23089.91667824 -.00713854  00000+0 -39378-2 0  9996
2 56035  43.0003 156.5131 0006512 316.9061 268.8819 15.80483941  1302
STARLINK-5790           
1 56036U 23042BC  23089.91667824 -.00714959  00000+0 -39297-2 0  9994
2 56036  43.0001 156.5110 0006519 319.0772 267.8969 15.80564168  1304
STARLINK-5758           
1 56037U 23042BD  23090.06638140  .00161240  00000+0  80145-3 0  9998
2 56037  43.0040 155.5933 0004844 304.6116  55.4298 15.80690067  1361
STARLINK-5793           
1 56038U 23042BE  23090.06648239 -.00476684  00000+0 -25639-2 0  9998
2 56038  43.0045 155.5968 0011480 344.8951  15.1576 15.80352176  1360
STARLINK-5795           
1 56039U 23042BF  23090.06634028  .00093775  00000+0  47046-3 0  9991
2 56039  43.0038 155.5927 0008434 324.9368  35.0947 15.80674045  1369
STARLINK-5798           
1 56040U 23042BG  23090.06629544  .00154156  00000+0  76596-3 0  9993
2 56040  43.0046 155.5928 0004846 302.8072  57.2333 15.80719005  1362
STARLINK-5800           
1 56041U 23042BH  23090.63504439  .00173636  00000+0  86987-3 0  9991
2 56041  43.0038 152.1134 0008666 337.1001  22.9482 15.80447908  1457
FALCON 9 DEB            
1 56042U 23042BJ  23090.06043213  .00347857  51144-4  12455-2 0  9993
2 56042  43.0120 155.5507 0031443  27.3783 332.8740 15.87180850  1025
FALCON 9 DEB            
1 56043U 23042BK  23089.61865971  .00344272  50294-4  12336-2 0  9997
2 56043  43.0102 158.2591 0029126  26.7175 333.5193 15.87286891   955
FALCON 9 DEB            
1 56044U 23042BL  23089.61476913  .00360741  55153-4  12229-2 0  9991
2 56044  43.0068 158.2238 0028068  17.3418 342.8409 15.88429291   952
